NORAD_CAT_ID,OBJECT_NAME,OBJECT_TYPE,EPOCH,MEAN_MOTION,ECCENTRICITY,INCLINATION,RA_OF_ASC_NODE,ARG_OF_PERICENTER,MEAN_ANOMALY,BSTAR,MEAN_MOTION_DOT,MEAN_MOTION_DDOT,TLE_LINE0,TLE_LINE1,TLE_LINE2,SEMIMAJOR_AXIS,PERIOD,APOGEE,PERIGEE,DECAYED
50198.0,STARLINK-3264,PAYLOAD,2022-03-03 14:00:01,15.71260733,0.000309,53.2175,354.0995,344.9179,24.8379,-0.0060312,-0.00717027,0.0,0 STARLINK-3264,1 50198U 21125AU  22062.58334491 -.00717027  00000-0 -60312-2 0  9993,2 50198  53.2175 354.0995 0003090 344.9179  24.8379 15.71260733 14645,6733.43,91.646,357.375,353.214,0.0
50198.0,STARLINK-3264,PAYLOAD,2022-03-03 22:00:00,15.70760413,0.0003857,53.2175,352.4572,322.8945,133.144,-0.0063208,-0.00734437,0.0,0 STARLINK-3264,1 50198U 21125AU  22062.91667824 -.00734437  00000-0 -63208-2 0  9990,2 50198  53.2175 352.4572 0003857 322.8945 133.1440 15.70760413  3690,6734.86,91.675,359.32199999999995,354.12699999999984,0.0
50198.0,STARLINK-3264,PAYLOAD,2022-03-04 14:00:01,15.69723502,0.0001052,53.2176,349.1747,313.7773,313.0669,-0.0063166,-0.0070445,0.0,0 STARLINK-3264,1 50198U 21125AU  22063.58335648 -.00704450  00000-0 -63166-2 0  9995,2 50198  53.2176 349.1747 0001052 313.7773 313.0669 15.69723502 14804,6737.825,91.736,360.399,358.981,0.0
50198.0,STARLINK-3264,PAYLOAD,2022-03-04 22:00:00,15.69221049,0.0001219,53.2177,347.5363,18.1187,333.1047,-0.0065741,-0.00716911,0.0,0 STARLINK-3264,1 50198U 21125AU  22063.91667824 -.00716911  00000-0 -65741-2 0  9992,2 50198  53.2177 347.5363 0001219  18.1187 333.1047 15.69221049  3698,6739.263000000001,91.765,361.95,360.307,0.0
50198.0,STARLINK-3264,PAYLOAD,2022-03-05 06:00:00,15.68708491,0.0001696,53.2174,345.8998,30.823,44.2355,-0.0066678,-0.00712326,0.0,0 STARLINK-3264,1 50198U 21125AU  22064.25001157 -.00712326  00000-0 -66678-2 0  9997,2 50198  53.2174 345.8998 0001696  30.8230  44.2355 15.68708491  3747,6740.731,91.795,363.739,361.453,0.0
50198.0,STARLINK-3264,PAYLOAD,2022-03-05 14:00:01,15.68199497,0.0001252,53.2175,344.2611,61.2213,97.0604,-0.0068242,-0.0071363999999999,0.0,0 STARLINK-3264,1 50198U 21125AU  22064.58334491 -.00713640  00000-0 -68242-2 0  9992,2 50198  53.2175 344.2611 0001252  61.2213  97.0604 15.68199497  3675,6742.19,91.825,364.899,363.211,0.0
50198.0,STARLINK-3264,PAYLOAD,2022-03-05 16:00:00,15.68073035,0.0001257,53.2174,343.8518,59.4716,209.5198,-0.0068837,-0.0071592,0.0,0 STARLINK-3264,1 50198U 21125AU  22064.66667824 -.00715920  00000-0 -68837-2 0  9993,2 50198  53.2174 343.8518 0001257  59.4716 209.5198 15.68073035 14979,6742.552,91.832,365.265,363.57,0.0
50198.0,STARLINK-3264,PAYLOAD,2022-03-05 22:00:01,15.67691015,0.0001375999999999,53.2177,342.6266,56.5295,184.426,-0.0069983,-0.00716471,0.0,0 STARLINK-3264,1 50198U 21125AU  22064.91668981 -.00716471  00000-0 -69983-2 0  9991,2 50198  53.2177 342.6266 0001376  56.5295 184.4260 15.67691015  3715,6743.648,91.855,366.44,364.585,0.0
50198.0,STARLINK-3264,PAYLOAD,2022-03-06 14:00:01,15.66669549,0.0001092,53.2174,339.3589,60.159,344.1127,-0.0072699,-0.00713994,0.0,0 STARLINK-3264,1 50198U 21125AU  22065.58334491 -.00713994  00000-0 -72699-2 0  9996,2 50198  53.2174 339.3589 0001092  60.1590 344.1127 15.66669549 15117,6746.578,91.915,369.18,367.707,0.0
50198.0,STARLINK-3264,PAYLOAD,2022-03-06 22:00:00,15.66160846,0.0001333,53.2175,337.7282,52.9574,72.0844,-0.0074415,-0.00715798,0.0,0 STARLINK-3264,1 50198U 21125AU  22065.91667824 -.00715798  00000-0 -74415-2 0  9994,2 50198  53.2175 337.7282 0001333  52.9574  72.0844 15.66160846  3698,6748.0390000000025,91.945,370.804,369.005,0.0
50198.0,STARLINK-3264,PAYLOAD,2022-03-07 12:00:00,15.65268574,0.0001221,53.2176,334.875,70.6268,104.2901,-0.007712,-0.0071557,0.0,0 STARLINK-3264,1 50198U 21125AU  22066.50001157 -.00715570  00000-0 -77120-2 0  9995,2 50198  53.2176 334.8750 0001221  70.6268 104.2901 15.65268574 15264,6750.603,91.997,373.293,371.644,0.0
50198.0,STARLINK-3264,PAYLOAD,2022-03-07 22:00:00,15.64632641,0.0001276,53.2177,332.8409,51.197,312.4806,-0.0079429,-0.00718213,0.0,0 STARLINK-3264,1 50198U 21125AU  22066.91667824 -.00718213  00000-0 -79429-2 0  9990,2 50198  53.2177 332.8409 0001276  51.1970 312.4806 15.64632641  3687,6752.432,92.034,375.159,373.436,0.0
50198.0,STARLINK-3264,PAYLOAD,2022-03-08 14:00:01,15.63610491,0.0001281999999999,53.2172,329.5875,58.7324,100.9736,-0.0082224,-0.00714187,0.0,0 STARLINK-3264,1 50198U 21125AU  22067.58334491 -.00714187  00000-0 -82224-2 0  9998,2 50198  53.2172 329.5875 0001282  58.7324 100.9736 15.63610491 15431,6755.375,92.095,378.106,376.374,0.0
50198.0,STARLINK-3264,PAYLOAD,2022-03-08 22:00:00,15.63099587,0.0001393,53.2174,327.9647,58.398,178.40200000000004,-0.0083708,-0.00712683,0.0,0 STARLINK-3264,1 50198U 21125AU  22067.91667824 -.00712683  00000-0 -83708-2 0  9991,2 50198  53.2174 327.9647 0001393  58.3980 178.4020 15.63099587  3697,6756.847,92.125,379.653,377.771,0.0
50198.0,STARLINK-3264,PAYLOAD,2022-03-09 14:00:01,15.62080122,0.000108,53.2174,324.7186,64.3861,324.7651,-0.0087296,-0.0071386,0.0,0 STARLINK-3264,1 50198U 21125AU  22068.58334491 -.00713860  00000-0 -87296-2 0  9990,2 50198  53.2174 324.7186 0001080  64.3861 324.7651 15.62080122  3711,6759.786,92.185,382.381,380.921,0.0
50198.0,STARLINK-3264,PAYLOAD,2022-03-09 16:00:00,15.61921794,0.0001453,53.2173,324.3118,58.9397,79.0982,-0.0082023,-0.00670297,0.0,0 STARLINK-3264,1 50198U 21125AU  22068.66667824 -.00670297  00000-0 -82023-2 0  9997,2 50198  53.2173 324.3118 0001453  58.9397  79.0982 15.61921794 15604,6760.243,92.194,383.09,381.126,0.0
50198.0,STARLINK-3264,PAYLOAD,2022-03-09 22:00:01,15.61571122,0.0001409,53.2175,323.0997,48.2491,56.2217,-0.0089207,-0.00715082,0.0,0 STARLINK-3264,1 50198U 21125AU  22068.91668981 -.00715082  00000-0 -89207-2 0  9993,2 50198  53.2175 323.0997 0001409  48.2491  56.2217 15.61571122  3695,6761.255,92.215,384.073,382.168,0.0
50198.0,STARLINK-3264,PAYLOAD,2022-03-10 06:00:00,15.60985521,0.0001341999999999,53.2168,321.4790000000001,58.036,121.0566,-0.0078108,-0.00619351,0.0,0 STARLINK-3264,1 50198U 21125AU  22069.25001157 -.00619351  00000-0 -78108-2 0  9997,2 50198  53.2168 321.4790 0001342  58.0360 121.0566 15.60985521 15692,6762.946,92.249,385.719,383.903,0.0
50198.0,STARLINK-3264,PAYLOAD,2022-03-10 14:00:01,15.60551415,0.0001273,53.2173,319.8606,58.5474,194.5326,-0.0092732999999999,-0.00714514,0.0,0 STARLINK-3264,1 50198U 21125AU  22069.58334491 -.00714514  00000-0 -92733-2 0  9990,2 50198  53.2173 319.8606 0001273  58.5474 194.5326 15.60551415  3663,6764.2,92.275,386.926,385.204,0.0
50198.0,STARLINK-3264,PAYLOAD,2022-03-10 20:00:01,15.601680900000002,0.000145,53.2176,318.6492,55.5701,162.6304,-0.0093937,-0.00713303,0.0,0 STARLINK-3264,1 50198U 21125AU  22069.83334491 -.00713303  00000-0 -93937-2 0  9990,2 50198  53.2176 318.6492 0001450  55.5701 162.6304 15.60168090 15784,6765.308000000001,92.298,388.154,386.192,0.0
50198.0,STARLINK-3264,PAYLOAD,2022-03-10 22:00:01,15.60041447,0.0001314,53.2175,318.2457,53.68600000000001,272.8758,-0.0094626,-0.00714869,0.0,0 STARLINK-3264,1 50198U 21125AU  22069.91668981 -.00714869  00000-0 -94626-2 0  9997,2 50198  53.2175 318.2457 0001314  53.6860 272.8758 15.60041447  3694,6765.674,92.305,388.42800000000005,386.65,0.0
50198.0,STARLINK-3264,PAYLOAD,2022-03-11 14:00:01,15.59021898,0.0001266,53.2172,315.0142,56.6482,54.8465,-0.009859,-0.00716133,0.0,0 STARLINK-3264,1 50198U 21125AU  22070.58334491 -.00716133  00000-0 -98590-2 0  9998,2 50198  53.2172 315.0142 0001266  56.6482  54.8465 15.59021898  3684,6768.624,92.366,391.346,389.632,0.0
50198.0,STARLINK-3264,PAYLOAD,2022-03-11 22:00:00,15.58510047,0.0001463,53.2172,313.4028,54.558,128.5155,-0.0099978,-0.00712547,0.0,0 STARLINK-3264,1 50198U 21125AU  22070.91667824 -.00712547  00000-0 -99978-2 0  9990,2 50198  53.2172 313.4028 0001463  54.5580 128.5155 15.58510047 15950,6770.106,92.396,392.961,390.98,0.0
50198.0,STARLINK-3264,PAYLOAD,2022-03-12 14:00:01,15.57489748,0.0001153,53.2174,310.1785,65.8045,258.5903,-0.01038,-0.00711748,0.0,0 STARLINK-3264,1 50198U 21125AU  22071.58334491 -.00711748  00000-0 -10380-1 0  9996,2 50198  53.2174 310.1785 0001153  65.8045 258.5903 15.57489748  3700,6773.062,92.456,395.708,394.146,0.0
50198.0,STARLINK-3264,PAYLOAD,2022-03-12 22:00:00,15.56982629,0.0001375999999999,53.2176,308.5712,45.9091,348.2243,-0.010648,-0.00715975,0.0,0 STARLINK-3264,1 50198U 21125AU  22071.91667824 -.00715975  00000-0 -10648-1 0  9995,2 50198  53.2176 308.5712 0001376  45.9091 348.2243 15.56982629 16107,6774.531999999997,92.487,397.33,395.465,0.0
50198.0,STARLINK-3264,PAYLOAD,2022-03-13 14:00:01,15.55962275,0.0001354,53.2174,305.3541,61.2742,110.5038,-0.011052,-0.00715345,0.0,0 STARLINK-3264,1 50198U 21125AU  22072.58334491 -.00715345  00000-0 -11052-1 0  9991,2 50198  53.2174 305.3541 0001354  61.2742 110.5038 15.55962275  3719,6777.494000000002,92.547,400.277,398.441,0.0
50198.0,STARLINK-3264,PAYLOAD,2022-03-13 22:00:01,15.55450756,0.0001477,53.2175,303.7503,54.8635,184.8815,-0.011222,-0.00712901,0.0,0 STARLINK-3264,1 50198U 21125AU  22072.91668981 -.00712901  00000-0 -11222-1 0  9996,2 50198  53.2175 303.7503 0001477  54.8635 184.8815 15.55450756 16262,6778.98,92.578,401.846,399.843,0.0
50198.0,STARLINK-3264,PAYLOAD,2022-03-14 14:00:01,15.54430075,0.0001214,53.2174,300.5407,58.2093,315.5036,-0.011626,-0.00711296,0.0,0 STARLINK-3264,1 50198U 21125AU  22073.58335648 -.00711296  00000-0 -11626-1 0  9995,2 50198  53.2174 300.5407 0001214  58.2093 315.5036 15.54430075  3685,6781.946999999999,92.638,404.635,402.989,0.0
50198.0,STARLINK-3264,PAYLOAD,2022-03-14 20:00:01,15.54049915,0.0001295,53.2174,299.3405,53.0817,280.17,-0.011843,-0.00714255,0.0,0 STARLINK-3264,1 50198U 21125AU  22073.83334491 -.00714255  00000-0 -11843-1 0  9997,2 50198  53.2174 299.3405 0001295  53.0817 280.1700 15.54049915 16402,6783.053000000001,92.661,405.796,404.039,0.0
